{"fetched_at":"2026-07-23T07:05:32.498Z","source":"https://celestrak.org/NORAD/elements/gp.php?NAME=CAPELLA&FORMAT=JSON","constellation":"capella","records":[{"OBJECT_NAME":"CAPELLA-11 (ACADIA-1)","OBJECT_ID":"2023-126A","EPOCH":"2026-07-22T12:32:46.305024","CLASSIFICATION_TYPE":"U","MEAN_MOTION":14.85378792,"ECCENTRICITY":0.00014097,"INCLINATION":53.0143,"RA_OF_ASC_NODE":31.4342,"ARG_OF_PERICENTER":159.5824,"MEAN_ANOMALY":200.5212,"EPHEMERIS_TYPE":0,"NORAD_CAT_ID":57693,"ELEMENT_SET_NO":999,"REV_AT_EPOCH":15737,"BSTAR":0.00047723144,"MEAN_MOTION_DOT":0.00003917,"MEAN_MOTION_DDOT":0},{"OBJECT_NAME":"CAPELLA-14 (ACADIA-4)","OBJECT_ID":"2024-066C","EPOCH":"2026-07-22T14:13:29.351712","CLASSIFICATION_TYPE":"U","MEAN_MOTION":15.06887876,"ECCENTRICITY":0.00009005,"INCLINATION":45.6035,"RA_OF_ASC_NODE":69.1388,"ARG_OF_PERICENTER":202.4763,"MEAN_ANOMALY":157.6082,"EPHEMERIS_TYPE":0,"NORAD_CAT_ID":59444,"ELEMENT_SET_NO":999,"REV_AT_EPOCH":11783,"BSTAR":0.00079452967,"MEAN_MOTION_DOT":0.00011816,"MEAN_MOTION_DDOT":0},{"OBJECT_NAME":"CAPELLA-13 (ACADIA-3)","OBJECT_ID":"2024-142A","EPOCH":"2026-07-22T13:43:05.360448","CLASSIFICATION_TYPE":"U","MEAN_MOTION":14.87669629,"ECCENTRICITY":0.00013391,"INCLINATION":53.0041,"RA_OF_ASC_NODE":263.1152,"ARG_OF_PERICENTER":89.0466,"MEAN_ANOMALY":271.0667,"EPHEMERIS_TYPE":0,"NORAD_CAT_ID":60419,"ELEMENT_SET_NO":999,"REV_AT_EPOCH":10567,"BSTAR":0.00042966308,"MEAN_MOTION_DOT":0.00003714,"MEAN_MOTION_DDOT":0},{"OBJECT_NAME":"CAPELLA-15 (ACADIA-5)","OBJECT_ID":"2024-149CE","EPOCH":"2026-07-22T04:29:48.543360","CLASSIFICATION_TYPE":"U","MEAN_MOTION":14.92392787,"ECCENTRICITY":0.00027931,"INCLINATION":97.6752,"RA_OF_ASC_NODE":275.2124,"ARG_OF_PERICENTER":309.4682,"MEAN_ANOMALY":50.629,"EPHEMERIS_TYPE":0,"NORAD_CAT_ID":60544,"ELEMENT_SET_NO":999,"REV_AT_EPOCH":10507,"BSTAR":0.00029174654,"MEAN_MOTION_DOT":0.00002932,"MEAN_MOTION_DDOT":0},{"OBJECT_NAME":"CAPELLA-17 (ACADIA-7)","OBJECT_ID":"2025-135BH","EPOCH":"2026-07-22T18:14:04.061472","CLASSIFICATION_TYPE":"U","MEAN_MOTION":14.91681233,"ECCENTRICITY":0.00045543,"INCLINATION":97.7707,"RA_OF_ASC_NODE":316.8598,"ARG_OF_PERICENTER":219.5173,"MEAN_ANOMALY":140.5714,"EPHEMERIS_TYPE":0,"NORAD_CAT_ID":64583,"ELEMENT_SET_NO":999,"REV_AT_EPOCH":5915,"BSTAR":0.00056481166,"MEAN_MOTION_DOT":0.00005627,"MEAN_MOTION_DDOT":0},{"OBJECT_NAME":"CAPELLA-16 (ACADIA-6)","OBJECT_ID":"2025-188D","EPOCH":"2026-07-22T10:54:02.146464","CLASSIFICATION_TYPE":"U","MEAN_MOTION":14.94107195,"ECCENTRICITY":0.00056947,"INCLINATION":97.7371,"RA_OF_ASC_NODE":278.0792,"ARG_OF_PERICENTER":118.2576,"MEAN_ANOMALY":241.9219,"EPHEMERIS_TYPE":0,"NORAD_CAT_ID":65318,"ELEMENT_SET_NO":999,"REV_AT_EPOCH":4918,"BSTAR":0.00053681155,"MEAN_MOTION_DOT":0.00005685,"MEAN_MOTION_DDOT":0},{"OBJECT_NAME":"CAPELLA-19 (ACADIA-9)","OBJECT_ID":"2026-004X","EPOCH":"2026-07-22T11:13:34.063104","CLASSIFICATION_TYPE":"U","MEAN_MOTION":14.86662039,"ECCENTRICITY":0.00015234,"INCLINATION":97.8014,"RA_OF_ASC_NODE":201.2037,"ARG_OF_PERICENTER":96.2052,"MEAN_ANOMALY":263.9337,"EPHEMERIS_TYPE":0,"NORAD_CAT_ID":67384,"ELEMENT_SET_NO":999,"REV_AT_EPOCH":2851,"BSTAR":0.00052383174,"MEAN_MOTION_DOT":0.000046,"MEAN_MOTION_DDOT":0},{"OBJECT_NAME":"CAPELLA-18 (ACADIA-8)","OBJECT_ID":"2026-004Y","EPOCH":"2026-07-22T22:46:29.546976","CLASSIFICATION_TYPE":"U","MEAN_MOTION":14.86655189,"ECCENTRICITY":0.00012406,"INCLINATION":97.8003,"RA_OF_ASC_NODE":201.8273,"ARG_OF_PERICENTER":80.3843,"MEAN_ANOMALY":279.7513,"EPHEMERIS_TYPE":0,"NORAD_CAT_ID":67385,"ELEMENT_SET_NO":999,"REV_AT_EPOCH":2859,"BSTAR":0.00046383784,"MEAN_MOTION_DOT":0.00004066,"MEAN_MOTION_DDOT":0},{"OBJECT_NAME":"CAPELLA-20 (ACADIA-10)","OBJECT_ID":"2026-067BX","EPOCH":"2026-07-21T20:09:23.162688","CLASSIFICATION_TYPE":"U","MEAN_MOTION":14.91426057,"ECCENTRICITY":0.00012093,"INCLINATION":97.7607,"RA_OF_ASC_NODE":160.5833,"ARG_OF_PERICENTER":95.1049,"MEAN_ANOMALY":265.0307,"EPHEMERIS_TYPE":0,"NORAD_CAT_ID":68485,"ELEMENT_SET_NO":999,"REV_AT_EPOCH":1689,"BSTAR":0.00054422285,"MEAN_MOTION_DOT":0.00005384,"MEAN_MOTION_DDOT":0}]}
