{"epoch":1784799577,"count":18318,"objects":[{"id":"57693","name":"CAPELLA-11 (ACADIA)","type":"PAYLOAD","l1":"1 57693U 23126A   26203.52275816  .00003917  00000-0  47723-3 0  9999","l2":"2 57693  53.0143  31.4342 0001410 159.5824 200.5212 14.85378792157374"},{"id":"59444","name":"CAPELLA-14 (ACADIA)","type":"PAYLOAD","l1":"1 59444U 24066C   26203.59270083  .00011816  00000-0  79453-3 0  9999","l2":"2 59444  45.6035  69.1388 0000900 202.4763 157.6082 15.06887876117834"},{"id":"60419","name":"CAPELLA-13 (ACADIA)","type":"PAYLOAD","l1":"1 60419U 24142A   26203.57158982  .00003714  00000-0  42966-3 0  9996","l2":"2 60419  53.0041 263.1152 0001339  89.0466 271.0667 14.87669629105670"},{"id":"60544","name":"CAPELLA-15 (ACADIA)","type":"PAYLOAD","l1":"1 60544U 24149CE  26203.18736740  .00002932  00000-0  29175-3 0  9991","l2":"2 60544  97.6752 275.2124 0002793 309.4682  50.6290 14.92392787105070"},{"id":"64583","name":"CAPELLA-17 (ACADIA)","type":"PAYLOAD","l1":"1 64583U 25135BH  26203.75976923  .00005627  00000-0  56481-3 0  9990","l2":"2 64583  97.7707 316.8598 0004554 219.5173 140.5714 14.91681233 59151"},{"id":"65318","name":"CAPELLA-16 (ACADIA)","type":"PAYLOAD","l1":"1 65318U 25188D   26203.45419151  .00005685  00000-0  53681-3 0  9990","l2":"2 65318  97.7371 278.0792 0005695 118.2576 241.9219 14.94107195 49180"},{"id":"67384","name":"CAPELLA-19 (ACADIA)","type":"PAYLOAD","l1":"1 67384U 26004X   26203.46775536  .00004600  00000-0  52383-3 0  9990","l2":"2 67384  97.8014 201.2037 0001523  96.2052 263.9337 14.86662039 28513"},{"id":"67385","name":"CAPELLA-18 (ACADIA)","type":"PAYLOAD","l1":"1 67385U 26004Y   26203.94895309  .00004066  00000-0  46384-3 0  9995","l2":"2 67385  97.8003 201.8273 0001241  80.3843 279.7513 14.86655189 28596"},{"id":"68485","name":"CAPELLA-20 (ACADIA)","type":"PAYLOAD","l1":"1 68485U 26067BX  26202.83985142  .00005384  00000-0  54422-3 0  9994","l2":"2 68485  97.7607 160.5833 0001209  95.1049 265.0307 14.91426057 16891"}]}